#dP2022 10 10  6  0  0.00000000      96 __u+U ITR00 EXT  IAC
## 2231 108000.00000000   900.00000000 59862 0.2500000000000
+  118   C06C07C08C09C10C11C12C13C14C16C19C20C21C22C23C24C25
+        C26C27C28C29C30C32C33C34C35C36C37C38C39C40C41C42C43
+        C44C45C46E01E02E03E04E05E07E08E09E10E11E12E13E14E15
+        E18E19E21E24E25E26E27E30E31E33E34E36G01G02G03G04G05
+        G06G07G08G09G10G11G12G13G14G15G16G17G18G19G20G21G22
+        G23G24G25G26G27G28G29G30G31G32J02J03J04R01R02R03R04
+        R05R07R08R09R11R12R13R14R15R17R18R19R20R21R22R24  0
++         8  7 11  9 10  9  8 11 10  7  8  8  9 10  9  9  8
++         8  9  8  9  9  9  8  8  9  9 10  9  8  8 10  9 10
++         9 10  9  9  8  8  8  9  8  8  9  8  9  8  8  8  8
++         8  8  8  8  8  8  8  8  9  8  8  8  8  8  8  8  8
++         8  9  8  8  8  8  8  9  8  8  8  8  8  8  8  8  8
++         8  8  8  8  9  8  8  9  8  8 11  9 10  9  9  8  8
++         8  8  8 10  8  8  8  9  9  8  8  8  9  9  8 10  0
%c M  cc GPS ccc cccc cccc cccc cccc ccccc ccccc ccccc ccccc
%c cc cc ccc ccc cccc cccc cccc cccc ccccc ccccc ccccc ccccc
%f  0.0000000  0.000000000  0.00000000000  0.000000000000000
%f  0.0000000  0.000000000  0.00000000000  0.000000000000000
%i    0    0    0    0      0      0      0      0         0
%i    0    0    0    0      0      0      0      0         0
/* IAC                                ULTRA-RAPID PREDICTION
/* S/V CLOCKS ARE ALIGNED TO GNSS TIME                      
/* G:C1WC2W R:C1PC2P E:C1XC5X C:C2IC6I J:C1CC2S             
/* PCV:IGS14_2218 OL/AL:FES2004  NONE     YN ORB:CoN CLK:CoN
*  2022 10 10 15  0  0.00000000
PC06 -13651.098553  39703.277657   2130.147700    899.254759
PC07      0.000000      0.000000      0.000000   -257.724841
PC08 -17099.617489  21747.586810 -31895.279298    491.384905
PC09  -7505.919807  39411.150106  12462.324989   -838.775079
PC10   4145.873718  33675.353593  25626.684975     85.585850
PC11 -13621.982148  21784.972979  11008.378308   -359.439778
PC12 -16365.977736   4518.449402  22192.606977   -487.396948
PC13  -7453.138427  23342.776936 -34249.935133    103.242134
PC14 -10156.616109  12169.085930 -22958.704376    560.620073
PC16 -16115.951630  38733.879732  -2088.407205    130.553755
PC19   1092.083520 -18624.897946  20762.833100   -845.200677
PC20  16385.841024  -5174.750260  21995.702469    867.463764
PC21 -22880.992596 -12395.280366 -10049.104613   -574.404976
PC22 -15524.565620 -21950.174354   7429.068475   -858.642747
PC23   8166.174946  14453.039497  22439.343844   -490.253674
PC24 -26218.107282   9303.157737   2379.380204   -547.174906
PC25 -11492.144066  17487.999598  18467.203370      7.727657
PC26 -24609.944212  -2092.555957 -13035.643537    -19.537799
PC27  14933.750110   5634.172293 -22907.759741     33.821581
PC28   5414.139371  22413.697235 -15720.412752     22.717472
PC29   7057.942942 -26949.120285  -1597.978714     24.953242
PC30  15836.854155 -14654.599891 -17709.194598      0.432029
PC32  22991.109793  12292.066032   9966.659248   -765.375733
PC33  -1077.644931  18605.515492 -20778.360117   -877.408660
PC34 -15619.347109  15710.994937  16951.215468     13.662511
PC35  -5295.938493 -23183.593476  14617.179023     35.567957
PC36  12495.067374 -17129.848517 -18112.251265   -619.688242
PC37  23834.823719   3607.019571  14054.175561   -464.209166
PC38 -24146.843042  22822.417380 -26056.075748     30.127737
PC39 -16885.083905  37727.520149  -7771.732806     -0.609600
PC40  -7064.942617  25331.805407  33009.056943     -5.775711
PC41  15241.328396  21988.136975  -7888.875067   -159.667425
PC42 -17166.472121   4157.161638 -21566.085664   -448.993786
PC43  -7610.917185  26739.113905   2313.603697     18.832166
PC44 -15181.328035  -5388.238263  22778.803265     77.157935
PC45  -8561.230277 -14170.101580 -22462.432379     -8.123105
PC46  25581.382354 -10319.370943  -4073.066622     -5.404563
PE01  -9058.004673  14632.864123  24091.730255   -544.138692
PE02   8831.375405 -14707.769633 -24114.655065    329.903154
PE03   3364.304197 -25605.348338  14446.869628   -608.364587
PE04  10101.087948  27641.709794   3169.256929  -1133.687591
PE05  15161.243940  -8462.682596  23968.503380   -135.857164
PE07 -17952.169762 -13313.002353 -19405.959648   -712.152468
PE08 -10194.951764 -27595.112406  -3241.350305   -613.072386
PE09  17855.074037  13478.217415  19384.612907   -688.389436
PE10  11077.982481  11594.452807 -24887.541361   -482.713848
PE11  18743.307039   1921.483459 -22839.367893   1852.434332
PE12   2352.678831  18774.018181 -22764.642300   -214.794751
PE13 -18200.621954  -2631.963845  23198.576019    430.675065
PE14  18787.806770  -6419.992407 -23363.008533     23.803582
PE15  -2120.704609 -18865.237656  22713.676096    714.952430
PE18  -9721.526576  20450.198820  14330.625508   -877.544825
PE19  -5197.756129  24038.834296 -16468.313537  -4303.074686
PE21 -25055.511032   4267.505748  15181.051228   -762.637722
PE24  27549.528349  10026.854725   3989.220728   -883.634656
PE25  25225.568098  -4047.822148 -14931.628948   -589.837406
PE26 -23452.321731  15540.543675   9226.233160  -1711.268732
PE27 -27939.598073  -9311.759939  -3021.900128   -412.096056
PE30 -13455.615050 -17504.071210 -19725.141005   -905.195020
PE31  14330.623800  17291.095454  19294.802138   -505.427581
PE33 -15123.344345  23868.823219  -8820.643514   -454.566028
PE34  14941.819734 -23905.846838   8986.408920     -8.768598
PE36  23451.752227 -14982.317581 -10077.745243   -443.873261
PG01 -10706.821584  20349.971722 -13294.219893    269.775350
PG02  11971.112774 -21899.855012  10001.129789   -642.904139
PG03  -4194.926395  14370.196224 -22067.138426   -362.873966
PG04  -1864.229151  25160.265235  -8138.720541   -105.762123
PG05  16284.766783  -8843.479816  18895.685155    -99.865547
PG06  19897.390959  -1812.882261 -17473.709572    487.165922
PG07   4611.907372  15874.768746  21115.811671    300.056711
PG08  -7702.187778  19103.458405  16521.550600    -88.237498
PG09   7352.793782  25339.207045   2776.920063   -285.058854
PG10 -23561.271129 -11683.658209   4920.944205     -6.921527
PG11  22934.475256 -10542.680010  -8201.776687    -24.342451
PG12   5495.592541 -14173.568251 -22048.335978   -290.631933
PG13  13064.278845 -11465.919574  19856.363603    403.494128
PG14  22083.827517  13451.956732   6329.343668    -96.404818
PG15   5604.416920 -20205.992908  15687.468717    -22.041052
PG16 -21527.261166   1951.771261  15457.700402   -525.992957
PG17  12395.821467  17710.752089 -14947.487675    667.421218
PG18  -5141.378911 -14731.020664  21471.034156     19.501434
PG19  14881.088006   7241.646768 -21067.542507    221.978019
PG20  24944.230670  -1913.123655   8578.915411    479.504620
PG21 -16362.917041  20010.252734  -3387.297965    158.237405
PG22 -15172.335772  -3942.379980 -21046.867149    343.189895
PG23 -16548.001996 -15364.412819  14078.152462     -0.898865
PG24  12264.408950 -21730.236058  -8783.670351    105.014875
PG25  -7721.228801 -17013.106950 -19270.563996    380.961001
PG26 -25855.604480  -2575.629404   6183.505313    231.933391
PG27 -13514.174480   7315.640230  21397.331906    200.210313
PG28  24505.006800   9503.942358  -2223.468923    330.667173
PG29  -4171.733000 -26116.635315   1842.668155   -558.550496
PG30  14932.487072   7456.329943  20796.672951   -537.226673
PG31 -21061.086302   2262.726899 -16446.708552   -196.313563
PG32 -14793.474977 -14385.108243 -16682.823979   -259.095490
PJ02 -28720.426063  22081.718518  26615.392264     -6.908298
PJ03 -31600.838698  26403.702176  14200.003091     -2.699396
PJ04 -24232.954876  21470.460422 -21840.280575    111.736595
PR01  13611.998262    865.184373  21550.720721     16.032924
PR02    690.698768 -15561.846505  20257.509811    -22.937193
PR03 -11646.912053 -21723.231830   6727.082159     65.234295
PR04 -17124.405920 -15843.306395 -10314.652778    160.672075
PR05 -13334.405399  -1331.277219 -21706.455880    101.022651
PR07  12055.549888  21654.961484  -5884.548688     42.354538
PR08  17254.743395  15568.551083  10526.436143    -67.574030
PR09 -12400.269911  11138.632945  19299.961494     81.299561
PR11  21206.315620   4051.435192  13610.068253     24.945537
PR12  24577.762851  -4860.055883  -4718.503883     21.910673
PR13  14030.060365 -10568.378263 -18506.214907    -27.674400
PR14  -6417.084980 -10239.762891 -22445.816412     24.214600
PR15 -21773.335419  -3868.469327 -12687.066170     93.283143
PR17   1477.228213 -20134.639820  15569.866441    567.915423
PR18  -8326.663857  -6716.500752  23175.271000     46.460229
PR19 -14042.496869   8730.773669  19429.640433   -206.768663
PR20 -12192.697650  22314.090983   1816.165352    -79.937633
PR21   -680.378274  19252.438895 -16738.523497   -340.472285
PR22   8832.300312   6461.935600 -23013.492887     14.173619
PR24  11299.551094 -22828.309356  -1075.910657    119.530178
EOF
